{
    "links": {
        "self": "http://www.neowsapp.com/rest/v1/neo/3873139?api_key=iIulBulltgU6a56xZRHN4H3l9WmuAYTsLGpBGhQ2"
    },
    "id": "3873139",
    "neo_reference_id": "3873139",
    "name": "(2019 ST8)",
    "designation": "2019 ST8",
    "nasa_jpl_url": "http://ssd.jpl.nasa.gov/sbdb.cgi?sstr=3873139",
    "absolute_magnitude_h": 25.4,
    "estimated_diameter": {
        "kilometers": {
            "estimated_diameter_min": 0.022108281,
            "estimated_diameter_max": 0.0494356193
        },
        "meters": {
            "estimated_diameter_min": 22.1082810359,
            "estimated_diameter_max": 49.435619262
        },
        "miles": {
            "estimated_diameter_min": 0.0137374447,
            "estimated_diameter_max": 0.0307178602
        },
        "feet": {
            "estimated_diameter_min": 72.5337327539,
            "estimated_diameter_max": 162.1903570994
        }
    },
    "is_potentially_hazardous_asteroid": false,
    "close_approach_data": [
        {
            "close_approach_date": "2019-09-27",
            "close_approach_date_full": "2019-Sep-27 15:10",
            "epoch_date_close_approach": 1569597000000,
            "relative_velocity": {
                "kilometers_per_second": "17.0180225511",
                "kilometers_per_hour": "61264.8811840252",
                "miles_per_hour": "38067.6146445961"
            },
            "miss_distance": {
                "astronomical": "0.0187780588",
                "lunar": "7.3046648732",
                "kilometers": "2809157.599214756",
                "miles": "1745529.5908693928"
            },
            "orbiting_body": "Earth"
        },
        {
            "close_approach_date": "2085-10-29",
            "close_approach_date_full": "2085-Oct-29 08:01",
            "epoch_date_close_approach": 3655180860000,
            "relative_velocity": {
                "kilometers_per_second": "5.6068620438",
                "kilometers_per_hour": "20184.7033576213",
                "miles_per_hour": "12541.9897057397"
            },
            "miss_distance": {
                "astronomical": "0.5838716064",
                "lunar": "227.1260548896",
                "kilometers": "87345948.670918368",
                "miles": "54274255.7734267584"
            },
            "orbiting_body": "Juptr"
        },
        {
            "close_approach_date": "2152-07-27",
            "close_approach_date_full": "2152-Jul-27 20:55",
            "epoch_date_close_approach": 5761400100000,
            "relative_velocity": {
                "kilometers_per_second": "13.3439590349",
                "kilometers_per_hour": "48038.2525256753",
                "miles_per_hour": "29849.1019651897"
            },
            "miss_distance": {
                "astronomical": "0.1797772967",
                "lunar": "69.9333684163",
                "kilometers": "26894300.660678029",
                "miles": "16711343.5152496402"
            },
            "orbiting_body": "Earth"
        }
    ],
    "orbital_data": {
        "orbit_id": "5",
        "orbit_determination_date": "2019-12-04 07:19:54",
        "first_observation_date": "2019-09-30",
        "last_observation_date": "2019-10-07",
        "data_arc_in_days": 7,
        "observations_used": 73,
        "orbit_uncertainty": "8",
        "minimum_orbit_intersection": ".000838963",
        "jupiter_tisserand_invariant": "2.918",
        "epoch_osculation": "2458757.5",
        "eccentricity": ".7060183738653381",
        "semi_major_axis": "2.757496723902104",
        "inclination": "1.867758432927627",
        "ascending_node_longitude": "183.7427124978311",
        "orbital_period": "1672.518516606319",
        "perihelion_distance": ".8106533709537435",
        "perihelion_argument": "121.0047345372266",
        "aphelion_distance": "4.704340076850464",
        "perihelion_time": "2458715.707816595973",
        "mean_anomaly": "8.995527329633198",
        "mean_motion": ".2152442537559885",
        "equinox": "J2000",
        "orbit_class": {
            "orbit_class_type": "APO",
            "orbit_class_description": "Near-Earth asteroid orbits which cross the Earth’s orbit similar to that of 1862 Apollo",
            "orbit_class_range": "a (semi-major axis) > 1.0 AU; q (perihelion) < 1.017 AU"
        }
    },
    "is_sentry_object": false
}